SatCatId,ObjectName,LaunchYear,OrbitalPeriod,LaunchMass,StatusCode,Inclination,Status,UcsData,OrbitClassEstimated,LaunchSiteCountry,Owner,UseType,Purpose,LaunchVehicleClass,TLE1,TLE2,MeanMotion,Eccentricity,OrbitClass
49285,ONEWEB-0359,2021,109.03,148.0,+,87.92,Active,1,LEO,Russia,UK,Commercial,Communications,Soyuz,1 49285U 21090G   23266.53714245  .00000070  00000+0  14055-3 0  9994,2 49285  87.9157 113.0878 0001479  65.3601 294.7686 13.20773386 98848,13.20773386,0.0001479,LEO
49286,ONEWEB-0360,2021,109.03,148.0,+,87.92,Active,1,LEO,Russia,UK,Commercial,Communications,Soyuz,1 49286U 21090H   23266.52662880  .00000061  00000+0  11778-3 0  9990,2 49286  87.9160 113.0871 0001640  77.1310 283.0007 13.20771838 98156,13.20771838,0.000164,LEO
49287,ONEWEB-0361,2021,109.03,148.0,+,87.92,Active,1,LEO,Russia,UK,Commercial,Communications,Soyuz,1 49287U 21090J   23266.58344630  .00000042  00000+0  71987-4 0  9995,2 49287  87.9159 113.0719 0001597  87.0962 273.0354 13.20771290 98617,13.2077129,0.0001597,LEO
49288,ONEWEB-0362,2021,109.11,148.0,+,87.92,Active,1,LEO,Russia,UK,Commercial,Communications,Soyuz,1 49288U 21090K   23266.73149297  .00000027  00000+0  36268-4 0  9991,2 49288  87.9243 143.5076 0001980  67.6872 292.4470 13.19728240 96174,13.1972824,0.000198,LEO
49289,ONEWEB-0363,2021,109.03,148.0,+,87.92,Active,1,LEO,Russia,UK,Commercial,Communications,Soyuz,1 49289U 21090L   23266.52450391  .00000132  00000+0  29373-3 0  9994,2 49289  87.9161 113.0806 0001351  96.0876 264.0411 13.20770445 98616,13.20770445,0.0001351,LEO
49290,ONEWEB-0364,2021,109.03,148.0,+,87.92,Active,1,LEO,Russia,UK,Commercial,Communications,Soyuz,1 49290U 21090M   23266.56240098  .00000019  00000+0  15945-4 0  9996,2 49290  87.9170 113.0854 0001855  86.8442 273.2904 13.20770734 99752,13.20770734,0.0001855,LEO
49291,ONEWEB-0365,2021,109.11,148.0,+,87.92,Active,1,LEO,Russia,UK,Commercial,Communications,Soyuz,1 49291U 21090N   23266.21027727  .00000234  00000+0  55323-3 0  9993,2 49291  87.9247 143.5994 0001869  74.0229 286.1109 13.19726371 94793,13.19726371,0.0001869,LEO
49292,ONEWEB-0366,2021,109.55,148.0,+,87.9,Active,1,LEO,Russia,UK,Commercial,Communications,Soyuz,1 49292U 21090P   23266.68422296  .00000263  00000+0  67441-3 0  9991,2 49292  87.8985 128.2895 0001830  84.0620 276.0718 13.14506739 97815,13.14506739,0.000183,LEO
49293,ONEWEB-0367,2021,109.03,148.0,+,87.92,Active,1,LEO,Russia,UK,Commercial,Communications,Soyuz,1 49293U 21090Q   23266.52241532  .00000096  00000+0  20420-3 0  9997,2 49293  87.9157 113.0759 0001950  88.6235 271.5121 13.20772089 98138,13.20772089,0.000195,LEO
49294,ONEWEB-0368,2021,109.03,148.0,+,87.92,Active,1,LEO,Russia,UK,Commercial,Communications,Soyuz,1 49294U 21090R   23266.57081386 -.00000002  00000+0 -37760-4 0  9997,2 49294  87.9169 113.0838 0002146 107.3657 252.7711 13.20770735 99295,13.20770735,0.0002146,LEO
49295,ONEWEB-0369,2021,109.11,148.0,+,87.92,Active,1,LEO,Russia,UK,Commercial,Communications,Soyuz,1 49295U 21090S   23266.73624097  .00000015  00000+0  45382-5 0  9990,2 49295  87.9242 143.4895 0001883  80.0527 280.0818 13.19726807 96140,13.19726807,0.0001883,LEO
49296,ONEWEB-0370,2021,109.03,148.0,+,87.92,Active,1,LEO,Russia,UK,Commercial,Communications,Soyuz,1 49296U 21090T   23266.53081195 -.00000209  00000+0 -54536-3 0  9991,2 49296  87.9158 113.0784 0001613  82.5095 277.6221 13.20770767 98176,13.20770767,0.0001613,LEO
49297,ONEWEB-0371,2021,109.11,148.0,+,87.92,Active,1,LEO,Russia,UK,Commercial,Communications,Soyuz,1 49297U 21090U   23266.21342702  .00000072  00000+0  14830-3 0  9990,2 49297  87.9244 143.5821 0001840  76.0505 284.0833 13.19725184 94829,13.19725184,0.000184,LEO
49298,ONEWEB-0372,2021,109.03,148.0,+,87.92,Active,1,LEO,Russia,UK,Commercial,Communications,Soyuz,1 49298U 21090V   23266.52031930  .00000125  00000+0  27523-3 0  9995,2 49298  87.9169 113.0774 0002054  77.2992 282.8371 13.20770878 98140,13.20770878,0.0002054,LEO
49299,ONEWEB-0373,2021,109.03,148.0,+,87.92,Active,1,LEO,Russia,UK,Commercial,Communications,Soyuz,1 49299U 21090W   23266.54766454  .00000046  00000+0  80619-4 0  9992,2 49299  87.9236 113.0325 0001738  96.2652 263.8679 13.20771252 99339,13.20771252,0.0001738,LEO
49300,ONEWEB-0374,2021,109.55,148.0,+,87.9,Active,1,LEO,Russia,UK,Commercial,Communications,Soyuz,1 49300U 21090X   23266.51929426 -.00000273  00000+0 -77175-3 0  9998,2 49300  87.8980 128.3125 0001749  81.3478 278.7850 13.14502792 96491,13.14502792,0.0001749,LEO
49301,ONEWEB-0375,2021,109.03,148.0,+,87.92,Active,1,LEO,Russia,UK,Commercial,Communications,Soyuz,1 49301U 21090Y   23266.53502364  .00000122  00000+0  26793-3 0  9990,2 49301  87.9157 113.0795 0001097 104.3398 255.7857 13.20770390 98836,13.2077039,0.0001097,LEO
49302,ONEWEB-0376,2021,109.11,148.0,+,87.92,Active,1,LEO,Russia,UK,Commercial,Communications,Soyuz,1 49302U 21090Z   23266.74256754  .00004845  00000+0  12068-1 0  9997,2 49302  87.9244 143.4938 0002191  75.3185 284.8191 13.19701571 96179,13.19701571,0.0002191,LEO
49303,ONEWEB-0377,2021,109.03,148.0,+,87.92,Active,1,LEO,Russia,UK,Commercial,Communications,Soyuz,1 49303U 21090AA  23266.53293300  .00001143  00000+0  27782-2 0  9991,2 49303  87.9157 113.0760 0001670  73.5606 286.5710 13.20779690 98827,13.2077969,0.000167,LEO
49304,ONEWEB-0378,2021,109.03,148.0,+,87.92,Active,1,LEO,Russia,UK,Commercial,Communications,Soyuz,1 49304U 21090AB  23266.57186313 -.00000004  00000+0 -42209-4 0  9991,2 49304  87.9170 113.0641 0001680  94.2359 265.8967 13.20771005 99419,13.20771005,0.000168,LEO
49305,ONEWEB-0379,2021,109.55,148.0,+,87.9,Active,1,LEO,Russia,UK,Commercial,Communications,Soyuz,1 49305U 21090AC  23266.13237863  .00000075  00000+0  16863-3 0  9993,2 49305  87.8982 128.3903 0001797  81.8733 278.2601 13.14501368 96446,13.14501368,0.0001797,LEO
49306,ONEWEB-0380,2021,109.11,148.0,+,87.92,Active,1,LEO,Russia,UK,Commercial,Communications,Soyuz,1 49306U 21090AD  23266.20866692  .00000007  00000+0 -15480-4 0  9991,2 49306  87.9246 143.5960 0001662  73.1541 286.9774 13.19726073 94795,13.19726073,0.0001662,LEO
49307,ONEWEB-0381,2021,109.03,148.0,+,87.92,Active,1,LEO,Russia,UK,Commercial,Communications,Soyuz,1 49307U 21090AE  23266.51820574  .00000063  00000+0  12211-3 0  9994,2 49307  87.9217 113.0242 0001607  80.8943 279.2372 13.20770066 98133,13.20770066,0.0001607,LEO
49308,ONEWEB-0382,2021,109.03,148.0,+,87.92,Active,1,LEO,Russia,UK,Commercial,Communications,Soyuz,1 49308U 21090AF  23266.58131538  .00000058  00000+0  10993-3 0  9996,2 49308  87.9158 113.0645 0001461  97.3756 262.7543 13.20770964 98132,13.20770964,0.0001461,LEO
49309,ONEWEB-0383,2021,109.55,148.0,+,87.9,Active,1,LEO,Russia,UK,Commercial,Communications,Soyuz,1 49309U 21090AG  23266.65884582 -.00000113  00000+0 -33851-3 0  9991,2 49309  87.8989 128.2682 0001767  86.7010 273.4321 13.14505996 97830,13.14505996,0.0001767,LEO
49310,ONEWEB-0384,2021,109.03,148.0,+,87.92,Active,1,LEO,Russia,UK,Commercial,Communications,Soyuz,1 49310U 21090AH  23266.80439509  .00000089  00000+0  18721-3 0  9994,2 49310  87.9169 113.0176 0001441 106.8297 253.2994 13.20771559 99485,13.20771559,0.0001441,LEO
49311,ONEWEB-0385,2021,109.03,148.0,+,87.92,Active,1,LEO,Russia,UK,Commercial,Communications,Soyuz,1 49311U 21090AJ  23266.57291861  .00000013  00000+0  22897-6 0  9995,2 49311  87.9169 113.0662 0001372  94.1055 266.0235 13.20772413 98119,13.20772413,0.0001372,LEO
49312,ONEWEB-0386,2021,109.03,148.0,+,87.92,Active,1,LEO,Russia,UK,Commercial,Communications,Soyuz,1 49312U 21090AK  23266.81701357  .00000021  00000+0  18581-4 0  9991,2 49312  87.9162 113.0298 0001584  93.7946 266.3368 13.20769839 99475,13.20769839,0.0001584,LEO
49313,ONEWEB-0387,2021,109.03,148.0,+,87.92,Active,1,LEO,Russia,UK,Commercial,Communications,Soyuz,1 49313U 21090AL  23266.80229403  .00000011  00000+0 -45881-5 0  9992,2 49313  87.9170 113.0778 0001213  79.1082 281.0188 13.20768942 99474,13.20768942,0.0001213,LEO
49314,ONEWEB-0388,2021,109.11,148.0,+,87.92,Active,1,LEO,Russia,UK,Commercial,Communications,Soyuz,1 49314U 21090AM  23266.73467478  .00005408  00000+0  13474-1 0  9994,2 49314  87.9243 143.4942 0001637  78.4228 281.7089 13.19699608 96148,13.19699608,0.0001637,LEO
49315,OBJECT A,2021,93.15,500.0,UNK,97.45,Inactive,1,LEO,PRC,China,Government,Space Science,Long March,1 49315U 21091A   23266.76190150  .00067589  00000+0  13801-2 0  9992,2 49315  97.4480 102.2491 0009140 301.2820  58.7533 15.45900984108235,15.45900984,0.000914,LEO
49316,OBJECT B,2021,94.82,-1.0,UNK,97.46,Inactive,0,LEO,PRC,China,Unknown,Unknown,Unknown,1 49316U 21091B   23266.78059429  .00005083  00000+0  24835-3 0  9999,2 49316  97.4612  92.9601 0008766 346.4100  13.6896 15.18662182107636,15.18662182,0.0008766,LEO
49317,OBJECT C,2021,94.5,50.0,UNK,97.46,Inactive,1,LEO,PRC,China,Commercial,Technology Development,Long March,1 49317U 21091C   23266.76659459  .00007654  00000+0  32023-3 0  9991,2 49317  97.4580  94.5035 0012968 313.5978  46.4182 15.23785217107731,15.23785217,0.0012968,LEO
49318,OBJECT D,2021,95.16,-1.0,UNK,97.45,Inactive,0,LEO,PRC,China,Unknown,Unknown,Unknown,1 49318U 21091D   23266.79481126  .00008680  00000+0  49062-3 0  9990,2 49318  97.4547  93.1510 0018217   9.5074 350.6498 15.13186701107653,15.13186701,0.0018217,LEO
49319,OBJECT E,2021,94.46,45.0,UNK,97.46,Inactive,1,LEO,PRC,China,Commercial,Earth Observation,Long March,1 49319U 21091E   23266.80501806  .00009328  00000+0  38127-3 0  9991,2 49319  97.4598  95.0477 0013355 313.4516  46.5609 15.24504970107760,15.2450497,0.0013355,LEO
49320,OBJECT F,2021,94.16,-1.0,UNK,97.45,Inactive,0,LEO,PRC,China,Unknown,Unknown,Unknown,1 49320U 21091F   23266.77948519  .00016799  00000+0  59142-3 0  9995,2 49320  97.4536  96.5452 0011555 306.9105  53.1076 15.29327600107876,15.293276,0.0011555,LEO
